0 COSMOS 1275 DEB
1 12962U 81053EH  13282.30785950  .00000900  00000-0  67347-3 0  1148
2 12962 082.9669 323.3833 0030043 220.6568 269.5682 13.93406153613683
0 COSMOS 1275 DEB
1 12962U 81053EH  13283.31203080  .00000881  00000-0  65924-3 0  1157
2 12962 082.9667 322.6185 0030104 217.7607 266.7575 13.93407401613825
0 COSMOS 1275 DEB
1 12962U 81053EH  13285.81100465  .00000931  00000-0  69738-3 0  1172
2 12962 082.9662 320.7157 0030235 210.6489 202.2063 13.93411082614179
0 COSMOS 1275 DEB
1 12962U 81053EH  13286.81650532  .00001007  00000-0  75533-3 0  1184
2 12962 082.9660 319.9499 0030289 207.8374 205.9982 13.93412828614311
0 COSMOS 1275 DEB
1 12962U 81053EH  13287.82139163  .00001071  00000-0  80406-3 0  1195
2 12962 082.9658 319.1846 0030336 205.0271 206.7132 13.93415902614452
0 COSMOS 1275 DEB
1 12962U 81053EH  13288.84015833  .00001096  00000-0  82297-3 0  1204
2 12962 082.9656 318.4086 0030387 202.1443 277.1011 13.93418416614599
0 COSMOS 1275 DEB
1 12962U 81053EH  13290.57101002  .00001049  00000-0  78723-3 0  1219
2 12962 082.9656 317.0901 0030477 197.2089 319.5406 13.93422345614832
0 COSMOS 1275 DEB
1 12962U 81053EH  13292.05954902  .00001108  00000-0  83178-3 0  1226
2 12962 082.9655 315.9559 0030550 192.9034 226.5521 13.93424241615047
0 COSMOS 1275 DEB
1 12962U 81053EH  13293.13784182  .00001092  00000-0  81952-3 0  1238
2 12962 082.9655 315.1344 0030591 189.8766 235.5464 13.93426353615191
0 COSMOS 1275 DEB
1 12962U 81053EH  13294.51985421  .00001057  00000-0  79305-3 0  1241
2 12962 082.9656 314.0818 0030627 186.0223 328.0610 13.93429332615385
0 COSMOS 1275 DEB
1 12962U 81053EH  13295.52496003  .00001085  00000-0  81431-3 0  1251
2 12962 082.9656 313.3161 0030652 183.2021 329.9457 13.93431401615526
